0 COSMOS 2251 DEB
1 35822U 93036ASU 13281.03043867  .00007814  00000-0  21701-2 0  6548
2 35822 074.0336 136.1197 0031924 202.1419 318.9865 14.46322770224522
0 COSMOS 2251 DEB
1 35822U 93036ASU 13282.06831581  .00013882  00000-0  38444-2 0  6555
2 35822 074.0337 134.1821 0031842 199.8508 323.0918 14.46345122224673
0 COSMOS 2251 DEB
1 35822U 93036ASU 13283.56458492  .00011079  00000-0  30690-2 0  6569
2 35822 074.0343 131.3888 0031768 196.2343 194.4765 14.46376964224888
0 COSMOS 2251 DEB
1 35822U 93036ASU 13283.62786318  .00022990  00000-0  63575-2 0  6570
2 35822 074.0373 131.2753 0031962 196.3853 163.6761 14.46379300224908
0 COSMOS 2251 DEB
1 35822U 93036ASU 13285.57048317  .00010315  00000-0  28560-2 0  6579
2 35822 074.0344 127.6433 0031700 191.6863 199.5500 14.46413748225173
0 COSMOS 2251 DEB
1 35822U 93036ASU 13286.97727237  .00010520  00000-0  29112-2 0  6582
2 35822 074.0338 125.0167 0031607 188.5397 325.0727 14.46437814225385
0 COSMOS 2251 DEB
1 35822U 93036ASU 13289.51243914  .00015680  00000-0  43261-2 0  6594
2 35822 074.0328 120.2816 0031477 183.0498 206.5980 14.46507853225744
0 COSMOS 2251 DEB
1 35822U 93036ASU 13291.51862654  .00015375  00000-0  42378-2 0  6606
2 35822 074.0317 116.5335 0031373 178.8555 213.8425 14.46559807226031
0 COSMOS 2251 DEB
1 35822U 93036ASU 13293.95721334  .00017112  00000-0  47087-2 0  6619
2 35822 074.0337 111.9800 0031104 173.7711 313.3164 14.46623333226390
